,property_id,suburb,city,state,country,latitude,longitude,location
0,11156,Potts Point,Sydney,NSW,Australia,-33.869170000000004,151.22656,"17 Billyard Ave, Elizabeth Bay NSW 2011"
1,12351,Pyrmont,Sydney,NSW,Australia,-33.86515,151.1919,"20 Pirrama Rd, Pyrmont NSW 2009"
2,15253,Darlinghurst,Sydney,NSW,Australia,-33.87964,151.2168,"355 Bourke St, Darlinghurst NSW 2010"
3,44545,Darlinghurst,Sydney,NSW,Australia,-33.87888,151.21438999999998,"81-83 Oxford St, Darlinghurst NSW 2010"
4,57183,Bondi Beach,Sydney,NSW,Australia,-33.89185,151.27308,"82 Campbell Parade, Bondi Beach NSW 2026"
5,58506,Mosman,Sydney,NSW,Australia,-33.81927,151.23651999999998,"57 Countess St, Mosman NSW 2088"
6,61721,Bondi Beach,Sydney,NSW,Australia,-33.8889,151.27726,"Bondi Beach Public School, Campbell Pde, Bondi Beach NSW 2026"
7,65126,Bondi Beach,Sydney,NSW,Australia,-33.885690000000004,151.26886000000002,"23B Curlewis St, Bondi Beach NSW 2026"
8,66009,Paddington,Sydney,NSW,Australia,-33.88327,151.22725,"29 Heeley St, Paddington NSW 2021"
9,66158,Elizabeth Bay,Sydney,NSW,Australia,-33.872479999999996,151.22814,"11 Roslyn Gardens, Elizabeth Bay NSW 2011"
10,69121,Narrabeen,Sydney,NSW,Australia,-33.71249,151.29842,"10 Lagoon St, Narrabeen NSW 2101"
11,69956,Bardwell Valley,Sydney,NSW,Australia,-33.93683,151.13528,"41 Wazir St, Bardwell Valley NSW 2207"
12,71866,Sydney,Sydney,NSW,Australia,-33.9086,151.25185,"63 Carrington Rd, Randwick NSW 2031"
13,73628,Bondi Beach,Sydney,NSW,Australia,-33.886720000000004,151.26656,"287 Old South Head Rd, Bondi Beach NSW 2026"
14,73639,Pyrmont,Sydney,NSW,Australia,-33.86585,151.19233,"108 Bowman St, Pyrmont NSW 2009"
15,75702,Malabar,Sydney,NSW,Australia,-33.96472,151.24797,"26 Prince Edward St, Malabar NSW 2036"
16,79624,Neutral Bay,Sydney,NSW,Australia,-33.83096,151.21532,"9 Merlin St, Neutral Bay NSW 2089"
17,79912,Bronte,Sydney,NSW,Australia,-33.906420000000004,151.26699,"13 Tipper Ave, Bronte NSW 2024"
18,86853,Bondi,Sydney,NSW,Australia,-33.8943,151.26724,"274 Bondi Rd, Bondi NSW 2026"
19,87709,North Wahroonga,Sydney,NSW,Australia,-33.70143,151.12514,"15 Holt Ave, North Wahroonga NSW 2076"
20,103273,Bondi Beach,Sydney,NSW,Australia,-33.88923,151.284,"132 Hastings Parade, North Bondi NSW 2026"
21,104380,Bondi Beach,Sydney,NSW,Australia,-33.88885,151.27827,"138-140 Warners Ave, Bondi Beach NSW 2026"
22,104393,Bondi Beach,Sydney,NSW,Australia,-33.888690000000004,151.27891,"45 Ramsgate Ave, Bondi Beach NSW 2026"
23,108522,Surry Hills,Sydney,NSW,Australia,-33.885999999999996,151.20938,"40 Holt St, Surry Hills NSW 2010"
24,118658,North Bondi,Sydney,NSW,Australia,-33.89124,151.28547,"190 Hastings Parade, North Bondi NSW 2026"
25,135691,Bondi,Sydney,NSW,Australia,-33.8895,151.26045,"1 New St, Bondi NSW 2026"
26,143247,Gordon,Sydney,NSW,Australia,-33.761379999999996,151.14978,"17 Browns Rd, Gordon NSW 2072"
27,143280,North Narrabeen,Sydney,NSW,Australia,-33.694,151.29036000000002,"137A Garden St, North Narrabeen NSW 2101"
28,153444,Potts Point,Sydney,NSW,Australia,-33.87249,151.22478999999998,"119 MacLeay St, Potts Point NSW 2011"
29,166468,Dee Why,Sydney,NSW,Australia,-33.75636,151.28905,"2 Carew St, Dee Why NSW 2099"
30,199669,Bondi Beach,Sydney,NSW,Australia,-33.88904,151.27225,"67A Roscoe St, Bondi Beach NSW 2026"
31,210439,Sydney,Sydney,NSW,Australia,-33.86699,151.22433,"3 Oak La, Potts Point NSW 2011"
32,219030,Bondi,Sydney,NSW,Australia,-33.89395,151.26608000000002,"260A Bondi Rd, Bondi NSW 2026"
33,222559,Woollahra,Sydney,NSW,Australia,-33.88697,151.24585,"24 Attunga St, Woollahra NSW 2025"
34,226202,Coogee,Sydney,NSW,Australia,-33.9256,151.25579,"Arden St at Neptune St, Coogee NSW 2034"
35,232782,Sydney,Sydney,NSW,Australia,-33.89289,151.20956,"41 Morehead St, Redfern NSW 2016"
36,232793,Woollahra,Sydney,NSW,Australia,-33.88697,151.24585,"24 Attunga St, Woollahra NSW 2025"
37,232795,Woollahra,Sydney,NSW,Australia,-33.88697,151.24585,"24 Attunga St, Woollahra NSW 2025"
38,236590,Kellyville Ridge,Sydney,NSW,Australia,-33.70711,150.92417,"4 Henfield St, Stanhope Gardens NSW 2768"
39,249100,Kirribilli,Sydney,NSW,Australia,-33.84373,151.21479,"8 Bradly Ave, Kirribilli NSW 2061"
40,249158,Ultimo,Sydney,,Australia,-33.87536,151.19675,"8 Ada Pl, Ultimo NSW 2007"
41,249998,Bondi Junction,Sydney,NSW,Australia,-33.89414,151.25138,"113 Ebley St, Bondi Junction NSW 2022"
42,250821,Bondi Beach,Sydney,NSW,Australia,-33.886179999999996,151.27614,"58 Mitchell St, Bondi Beach NSW 2026"
43,252427,Coogee,Sydney,NSW,Australia,-33.9263,151.25912,"21 Neptune St, Coogee NSW 2034"
44,259857,Camperdown,Sydney,NSW,Australia,-33.89058,151.17791,"57 Mallett St, Camperdown NSW 2050"
45,271182,Newtown,Sydney,NSW,Australia,-33.89434,151.18196,"2 Egan St, Newtown NSW 2042"
46,273673,Maroubra,Sydney,NSW,Australia,-33.942009999999996,151.24895,"9 Mulgray Ave, Maroubra NSW 2035"
47,275625,Randwick,Sydney,NSW,Australia,-33.919709999999995,151.2443,"63 St Pauls St, Randwick NSW 2031"
48,276617,Potts Point,Sydney,NSW,Australia,-33.8727,151.22403,"20 Springfield Ave, Potts Point NSW 2011"
49,283378,Darlinghurst,Sydney,NSW,Australia,-33.877340000000004,151.22095,"235 Darlinghurst Rd, Darlinghurst NSW 2010"
50,286924,Sydney,Sydney,NSW,Australia,-33.84796,151.21186,"30-34 Alfred St S, Milsons Point NSW 2061"
51,287388,Alexandria,Sydney,NSW,Australia,-33.8989,151.19824,"37 Buckland St, Alexandria NSW 2015"
52,288359,Newtown,Sydney,NSW,Australia,-33.90806,151.17661999999999,"148 Lord St, Newtown NSW 2042"
53,288671,Darlinghurst,Sydney,NSW,Australia,-33.878659999999996,151.21532,"252 Crown St, Darlinghurst NSW 2010"
54,290929,Paddington,Sydney,NSW,Australia,-33.88472,151.23686999999998,"8 Forbes St, Paddington NSW 2021"
55,291782,Bondi Junction,Sydney,NSW,Australia,-33.89445,151.25331,"145 Ebley St, Bondi Junction NSW 2022"
56,293951,Bondi Beach,Sydney,NSW,Australia,-33.88985,151.27039,"10 Cox Ave, Bondi Beach NSW 2026"
57,299749,Balgowlah,Sydney,NSW,Australia,-33.794940000000004,151.25963000000002,"80 Seaview St, Balgowlah NSW 2093"
58,304835,Darlinghurst,Sydney,NSW,Australia,-33.87664,151.21726,"247 Bourke St, Darlinghurst NSW 2010"
59,304990,East Lindfield,Sydney,NSW,Australia,-33.769090000000006,151.18124,"8 Loombah Ave, East Lindfield NSW 2070"
60,315059,Darlinghurst,Sydney,NSW,Australia,-33.88157,151.21563,"11 Bloomfield St, Surry Hills NSW 2010"
61,326040,Bondi Beach,Sydney,NSW,Australia,-33.8874,151.27433,"31 Beach Rd, Bondi Beach NSW 2026"
62,338130,Coogee,Sydney,NSW,Australia,-33.92255,151.25093,"100 Mount St, Coogee NSW 2034"
63,348891,Bondi Beach,Sydney,NSW,Australia,-33.88958,151.27406000000002,"120 Roscoe St, Bondi Beach NSW 2026"
64,352147,North Rocks,Sydney,NSW,Australia,-33.76275,151.01316,"7 Eather Ave, North Rocks NSW 2151"
65,357543,East Lindfield,Sydney,NSW,Australia,-33.76771,151.18275,"7 Robinson St, East Lindfield NSW 2070"
66,360141,Marrickville,Sydney,NSW,Australia,-33.91885,151.1526,"66A Renwick St, Marrickville NSW 2204"
67,361912,Pennant Hills,Sydney,NSW,Australia,-33.73553,151.07519,"320 Pennant Hills Rd, Pennant Hills NSW 2120"
68,363237,Summer Hill,Sydney,NSW,Australia,-33.88903,151.13953,"18 Sloane St, Summer Hill NSW 2130"
69,363282,Elizabeth Bay,Sydney,NSW,Australia,-33.87109,151.22398,"15 Tusculum St, Potts Point NSW 2011"
70,365806,Cremorne,Sydney,NSW,Australia,-33.824729999999995,151.22943,"11 Levick St, Cremorne NSW 2090"
71,365953,Mosman,Sydney,NSW,Australia,-33.82329,151.23678999999998,"1 Rosebery St, Mosman NSW 2088"
72,366856,Bondi,Sydney,NSW,Australia,-33.89306,151.26258,"42 Ocean St N, Bondi NSW 2026"
73,366857,Bondi,Sydney,NSW,Australia,-33.892959999999995,151.26277,"42 Ocean St N, Bondi NSW 2026"
74,368282,Dulwich Hill,Sydney,NSW,Australia,-33.89743,151.14234,"108 Victoria St, Dulwich Hill NSW 2203"
75,381091,Surry Hills,Sydney,NSW,Australia,-33.88362,151.21188,"8 Bellevue St, Surry Hills NSW 2010"
76,386997,Chippendale,Sydney,NSW,Australia,-33.88712,151.19678000000002,"70-80 Myrtle St, Chippendale NSW 2008"
77,389876,Redfern,Sydney,NSW,Australia,-33.88926,151.20172,"5/19 Regent St, Redfern NSW 2016"
78,394550,Darlinghurst,Sydney,NSW,Australia,-33.87664,151.21312,"20 Hargrave St, Darlinghurst NSW 2010"
79,403909,Sydney,Sydney,NSW,Australia,-33.886309999999995,151.23081000000002,"120B Underwood St, Paddington NSW 2021"
80,405432,Allambie Heights,Sydney,NSW,Australia,-33.76468,151.2554,"2 Derna Cres, Allambie Heights NSW 2100"
81,408330,Bondi Beach,Sydney,NSW,Australia,-33.88909,151.2757,"184-186 Campbell Parade, Bondi Beach NSW 2026"
82,409800,Centennial Park,Sydney,NSW,Australia,-33.88791,151.23273999999998,"12-14 Wentworth St, Paddington NSW 2021"
83,410073,Woolloomooloo,Sydney,NSW,Australia,-33.87038,151.22047,"28 Forbes St, Woolloomooloo NSW 2011"
84,411828,Lane Cove North,Sydney,NSW,Australia,-33.80341,151.1599,"20 Hart St, Lane Cove North NSW 2066"
85,412079,Church Point,Sydney,NSW,Australia,-33.64349,151.27737,"13 Douglass Estate, Mccarrs Creek NSW 2105"
86,418136,Sydney,Sydney,NSW,Australia,-33.7685,151.25856000000002,"1 Allenby Park Parade, Allambie Heights NSW 2100"
87,418480,Tamarama,Sydney,NSW,Australia,-33.89918,151.27226000000002,"Gaerloch Reserve, 2 Gaerloch Ave, Tamarama NSW 2026"
88,421997,Bilgola,Sydney,NSW,Australia,-33.64085,151.32023,"1 Weetawaa Rd, Bilgola Plateau NSW 2107"
89,426879,Balmain East,Sydney,NSW,Australia,-33.85889,151.19199,"21 Datchett St, Balmain East NSW 2041"
90,429733,Bellevue Hill,Sydney,NSW,Australia,-33.885329999999996,151.26367,"10 Bundarra Rd, Bellevue Hill NSW 2023"
91,440213,Darling Point,Sydney,NSW,Australia,-33.87355,151.23458,"1B New Beach Rd, Darling Point NSW 2027"
92,444772,Double Bay,Sydney,NSW,Australia,-33.87303,151.2467,"4 Gladswood Gardens, Double Bay NSW 2028"
93,444977,Cherrybrook,Sydney,NSW,Australia,-33.72254,151.05119,"1 Yanderra Grove, Cherrybrook NSW 2126"
94,446570,Surry Hills,Sydney,NSW,Australia,-33.88094,151.21112,"128 Commonwealth St, Surry Hills NSW 2010"
95,449750,Surry Hills,Sydney,NSW,Australia,-33.88094,151.21112,"128 Commonwealth St, Surry Hills NSW 2010"
96,450017,North Narrabeen,Sydney,NSW,Australia,-33.6939,151.29072,"137A Garden St, North Narrabeen NSW 2101"
97,458203,Bondi Beach,Sydney,NSW,Australia,-33.89105,151.27251,"3 Jaques Ave, Bondi Beach NSW 2026"
98,460109,Clovelly,Sydney,NSW,Australia,-33.91558,151.26488999999998,"36 Cliffbrook Parade, Clovelly NSW 2031"
99,461984,Rosebery,Sydney,NSW,Australia,-33.91476,151.20641,"2 Primrose Ave, Rosebery NSW 2018"
100,463282,Coogee,Sydney,NSW,Australia,-33.92154,151.25392,"128S Brook St, Coogee NSW 2034"
101,471389,Waterloo,Sydney,NSW,Australia,-33.9032,151.20648,"995 Bourke St, Waterloo NSW 2017"
102,472566,Manly Vale,Sydney,NSW,Australia,-33.784459999999996,151.2747,"84B Innes Rd, Manly Vale NSW 2093"
103,475512,Sydney,Sydney,NSW,Australia,-33.89375,151.26337,"208 Bondi Rd, Bondi NSW 2026"
104,481472,Bondi,Sydney,NSW,Australia,-33.89577,151.26577,"63 Imperial Ave, Bondi NSW 2026"
105,496747,Bondi,Sydney,NSW,Australia,-33.89288,151.26819,"28 Edward St, Bondi NSW 2026"
106,498008,Sydney,Sydney,NSW,Australia,-33.8634,151.21103,"36 Young St, Sydney NSW 2000"
107,499631,Lugarno,Sydney,NSW,Australia,-33.98625,151.0411,"11 Maple St, Lugarno NSW 2210"
108,501265,Maroubra,Sydney,NSW,Australia,-33.936679999999996,151.23363,"10 Nevorie Cres, Maroubra NSW 2035"
109,501382,Kensington,Sydney,NSW,Australia,-33.902640000000005,151.22421,"3 Alison Rd, Kensington NSW 2033"
110,509133,North Bondi,Sydney,NSW,Australia,-33.881009999999996,151.27126,"1 Shaw St, North Bondi NSW 2026"
111,510654,Bondi Beach,Sydney,NSW,Australia,-33.88754,151.27395,"44 Beach Rd, Bondi Beach NSW 2026"
112,516032,Newtown,Sydney,NSW,Australia,-33.89577,151.18329,"94B Wilson St, Newtown NSW 2042"
113,520737,Coogee,Sydney,NSW,Australia,-33.92071,151.25588,"233 Coogee Bay Rd, Coogee NSW 2034"
114,537851,Manly,Sydney,NSW,Australia,-33.80284,151.28978999999998,"73 Darley Rd, Manly NSW 2095"
115,539231,Newport,Sydney,NSW,Australia,-33.64898,151.31927,"47 Hillside Rd, Newport NSW 2106"
116,540974,Bondi Beach,Sydney,NSW,Australia,-33.87932,151.27498,"8 Narelle St, North Bondi NSW 2026"
117,546959,Bondi Beach,Sydney,NSW,Australia,-33.88643,151.26848999999999,"166 Wellington St, Bondi Beach NSW 2026"
118,547003,Bondi Beach,Sydney,NSW,Australia,-33.88673,151.26756,"30 Simpson St, Bondi Beach NSW 2026"
119,555783,Surry Hills,Sydney,NSW,Australia,-33.88971,151.20641,"249 Cleveland St, Surry Hills NSW 2010"
120,556348,Potts Point,Sydney,NSW,Australia,-33.86988,151.22262,"75 Victoria St, Potts Point NSW 2011"
121,564646,Bondi Junction,Sydney,NSW,Australia,-33.89077,151.2558,"30 Waverley Cres, Bondi Junction NSW 2022"
122,571772,Tamarama,Sydney,NSW,Australia,-33.89808,151.27001,"11A Carlisle St, Tamarama NSW 2026"
123,581732,North Bondi,Sydney,NSW,Australia,-33.88436,151.27683000000002,"116 O'Donnell St, North Bondi NSW 2026"
124,583321,Bondi Beach,Sydney,NSW,Australia,-33.88984,151.26418,"90 Simpson St, Bondi Beach NSW 2026"
125,591662,Bondi,Sydney,NSW,Australia,-33.89632,151.27312,"12 Sandridge St, Bondi NSW 2026"
126,592309,Coogee,Sydney,NSW,Australia,-33.92046,151.25656999999998,"192-198 Arden St, Coogee NSW 2034"
127,593481,Darlington,Sydney,NSW,Australia,-33.8917,151.19499,"290 Abercrombie St, Darlington NSW 2008"
128,594776,Coogee,Sydney,NSW,Australia,-33.91564,151.25148000000002,"8 Abbott St, Coogee NSW 2034"
129,606519,Malabar,Sydney,NSW,Australia,-33.972229999999996,151.25246,"11 Nix Ave, Malabar NSW 2036"
130,614739,Stanmore,Sydney,NSW,Australia,-33.89015,151.16815,"43 Northumberland Ave, Stanmore NSW 2048"
131,616822,Darlinghurst,Sydney,NSW,Australia,-33.87773,151.21481,"162 Riley St, Darlinghurst NSW 2010"
132,619474,Potts Point,Sydney,NSW,Australia,-33.87334,151.2224,"175 Victoria St, Potts Point NSW 2011"
133,633322,Manly,Sydney,NSW,Australia,-33.80202,151.28874,"72 Darley Rd, Manly NSW 2095"
134,633795,North Bondi,Sydney,NSW,Australia,-33.88146,151.27686,"10 Hardy St, North Bondi NSW 2026"
135,634581,Denistone,Sydney,NSW,Australia,-33.802620000000005,151.08719,"31 Anthony Rd, Denistone NSW 2114"
136,634590,Rose Bay,Sydney,NSW,Australia,-33.876129999999996,151.26388,"28 Manion Ave, Rose Bay NSW 2029"
137,639470,Darlinghurst,Sydney,NSW,Australia,-33.88194,151.21823,"46 Taylor St, Darlinghurst NSW 2010"
138,641123,Waverley,Sydney,NSW,Australia,-33.9045,151.25699,"9 Leichhardt St, Waverley NSW 2024"
139,651495,Clovelly,Sydney,NSW,Australia,-33.91417,151.26264,"1 Melrose Parade, Clovelly NSW 2031"
140,651796,Maroubra,Sydney,NSW,Australia,-33.946529999999996,151.24243,"159S Fitzgerald Ave, Maroubra NSW 2035"
141,653240,Bondi Junction,Sydney,NSW,Australia,-33.89612,151.25326,"31-33 Botany St, Bondi Junction NSW 2022"
142,653534,North Bondi,Sydney,NSW,Australia,-33.8824,151.27103,"15 Gilgandra Rd, North Bondi NSW 2026"
143,655953,Bondi Beach,Sydney,NSW,Australia,-33.8855,151.27462,"35 Blair St, Bondi Beach NSW 2026"
144,658720,Potts Point,Sydney,NSW,Australia,-33.866659999999996,151.22624,"14 Wylde St, Potts Point NSW 2011"
145,661144,Bondi Junction,Sydney,NSW,Australia,-33.894529999999996,151.25173999999998,"10A Allens Parade, Bondi Junction NSW 2022"
146,664353,Sydney,Sydney,NSW,Australia,-33.85583,151.19235,"26A Nicholson St, Balmain East NSW 2041"
147,677230,Elizabeth Bay,Sydney,NSW,Australia,-33.87123,151.23044,"97 Elizabeth Bay Rd, Elizabeth Bay NSW 2011"
148,686805,Darlinghurst,Sydney,NSW,Australia,-33.87591,151.22205,"1/274 Victoria St, Darlinghurst NSW 2010"
149,698338,North Bondi,Sydney,NSW,Australia,-33.88458,151.2772,"53 Oakley Rd, North Bondi NSW 2026"
150,698667,Manly,Sydney,NSW,Australia,-33.78682,151.28558,"Stella Maris College, 52 Eurobin Ave, Manly NSW 2095"
151,699480,Bondi,Sydney,NSW,Australia,-33.89411,151.26973999999998,"16 Edward St, Bondi NSW 2026"
152,701180,Campsie,Sydney,NSW,Australia,-33.90874,151.11143,"16 Bellombi St, Campsie NSW 2194"
153,701670,Kirrawee,Sydney,NSW,Australia,-34.04222,151.06819,"74 Bligh St, Kirrawee NSW 2232"
154,701914,Randwick,Sydney,NSW,Australia,-33.92305,151.24555,"64 Howard St, Randwick NSW 2031"
155,706428,Bondi Beach,Sydney,NSW,Australia,-33.8905,151.27261000000001,"32 Hall St, Bondi Beach NSW 2026"
156,706542,Beacon Hill,Sydney,NSW,Australia,-33.75376,151.26013,"176 Warringah Rd, Beacon Hill NSW 2100"
157,708819,Pymble,Sydney,NSW,Australia,-33.74941,151.14481,"5 Bridge St, Pymble NSW 2073"
158,709066,Kingsford,Sydney,NSW,Australia,-33.92712,151.22326999999999,"4A Astrolabe Rd, Daceyville NSW 2032"
159,714131,Surry Hills,Sydney,NSW,Australia,-33.88687,151.20887,"117 Devonshire St, Surry Hills NSW 2010"
160,718428,Horsley Park,Sydney,NSW,Australia,-33.85631,150.8302,"272 Garfield Rd, Horsley Park NSW 2175"
161,718597,Balgowlah,Sydney,NSW,Australia,-33.80125,151.26575,"5 Gourlay Ave, Balgowlah NSW 2093"
162,725235,Birchgrove,Sydney,NSW,Australia,-33.84738,151.18481,"115 Louisa Rd, Birchgrove NSW 2041"
163,725541,Redfern,Sydney,NSW,Australia,-33.8921,151.20006999999998,"62 Lawson Square, Redfern NSW 2016"
164,726883,Annandale,Sydney,NSW,Australia,-33.88109,151.16801,"221 Young St, Annandale NSW 2038"
165,728222,Darling Point,Sydney,NSW,Australia,-33.870470000000005,151.23587,"Yarranabbe Park, New Beach Rd, Darling Point NSW 2027"
166,730113,Bronte,Sydney,NSW,Australia,-33.90422,151.25826999999998,"3 Lugar Brae Ave, Bronte NSW 2024"
167,67112,Marrickville,Sydney,NSW,Australia,-33.915,151.1403,"34 Riverside Cres, Marrickville NSW 2204"
168,130970,Redfern,Sydney,NSW,Australia,-33.89338,151.20406,"107 Pitt St, Redfern NSW 2016"
169,196170,Bondi,Sydney,NSW,Australia,-33.8937,151.26738,"6 Castlefield St, Bondi NSW 2026"
170,286949,Dover Heights,Sydney,NSW,Australia,-33.879459999999995,151.27942,"120 Military Rd, Dover Heights NSW 2030"
171,297633,Hornsby,Sydney,NSW,Australia,-33.69359,151.09991000000002,"9 Mildred Ave, Hornsby NSW 2077"
172,324918,Erskineville,Sydney,NSW,Australia,-33.89867,151.1841,"38 John St, Erskineville NSW 2043"
173,340563,Waverton,Sydney,NSW,Australia,-33.837140000000005,151.19659,"19 Tunks St, Waverton NSW 2060"
174,355773,Ultimo,Sydney,NSW,Australia,-33.8817,151.19539,"46 Kelly St, Ultimo NSW 2007"
175,361899,Pennant Hills,Sydney,NSW,Australia,-33.73492,151.07399999999998,"5 Stevens St, Pennant Hills NSW 2120"
176,379498,Surry Hills,Sydney,NSW,Australia,-33.88517,151.21264,"385 Riley St, Surry Hills NSW 2010"
177,413968,Rosehill,Sydney,NSW,Australia,-33.82634,151.01843,"75 Arthur St, Rosehill NSW 2142"
178,465977,Sydney,Sydney,NSW,Australia,-33.8862,151.21163,"100 Cooper St, Surry Hills NSW 2010"
179,475557,Ultimo,Sydney,NSW,Australia,-33.87975,151.20019,"13-17 Systrum St, Ultimo NSW 2007"
180,589989,Bondi,Sydney,NSW,Australia,-33.89414,151.26715,"270-272 Bondi Rd, Bondi NSW 2026"
181,622670,Longueville,Sydney,NSW,Australia,-33.83205,151.16658999999999,"42 Stuart St, Longueville NSW 2066"
182,659320,Bondi,Sydney,NSW,Australia,-33.89342,151.26657,"20 Imperial Ave, Bondi NSW 2026"
183,679121,Glebe,Sydney,NSW,Australia,-33.88074,151.18556999999998,"154 Bridge Rd, Glebe NSW 2037"
184,66170,Ultimo,Sydney,NSW,Australia,-33.88333,151.19523999999998,"76 Bay St, Ultimo NSW 2007"
185,80470,Neutral Bay,Sydney,NSW,Australia,-33.82999,151.21831,"Military Rd Near Watson St, Neutral Bay NSW 2089"
186,85331,Miranda,Sydney,NSW,Australia,-34.035340000000005,151.10388,"536 Kingsway, Miranda NSW 2228"
187,92853,Balmain,Sydney,NSW,Australia,-33.85999,151.17585,"27 Roseberry St, Balmain NSW 2041"
188,105938,Newport,Sydney,NSW,Australia,-33.649640000000005,151.31691999999998,"36 Grandview Dr, Newport NSW 2106"
189,143048,Newtown,Sydney,NSW,Australia,-33.9012,151.18031000000002,"33 Munni St, Newtown NSW 2042"
190,200868,Rosebery,Sydney,NSW,Australia,-33.915620000000004,151.21133999999998,"83-93 Dalmeny Ave, Rosebery NSW 2018"
191,232188,North Narrabeen,Sydney,NSW,Australia,-33.70017,151.29355,"35 Warraba Rd, North Narrabeen NSW 2101"
192,257847,Maianbar,Sydney,NSW,Australia,-34.07966,151.1257,"46 Cullen Ln, Maianbar NSW 2230"
193,262191,Dawes Point,Sydney,NSW,Australia,-33.856590000000004,151.20782,"18 Lower Fort St, Dawes Point NSW 2000"
194,264513,Willoughby East,Sydney,NSW,Australia,-33.79381,151.20263,"21 Bedford St, North Willoughby NSW 2068"
195,264925,Bondi Beach,Sydney,NSW,Australia,-33.88695,151.27846,"11A Brighton Blvd, Bondi Beach NSW 2026"
196,288305,Rooty Hill,Sydney,NSW,Australia,-33.78453,150.84881000000001,"13 Reynell St, Eastern Creek NSW 2766"
197,290146,Bellevue Hill,Sydney,NSW,Australia,-33.88596,151.25758000000002,"23A Bellevue Rd, Bellevue Hill NSW 2023"
198,291677,Newtown,Sydney,NSW,Australia,-33.90664,151.17598,"118 Wells St, Newtown NSW 2042"
199,323999,Malabar,Sydney,NSW,Australia,-33.968509999999995,151.2508,"23 Napier St, Malabar NSW 2036"
200,329096,Newtown,Sydney,NSW,Australia,-33.89656,151.17296000000002,"7 Gladstone St, Enmore NSW 2042"
201,374072,North Bondi,Sydney,NSW,Australia,-33.88622,151.2761,"60 Mitchell St, Bondi Beach NSW 2026"
202,397905,Dover Heights,Sydney,NSW,Australia,-33.885259999999995,151.28243,"36 O'Donnell St, North Bondi NSW 2026"
203,408200,Rooty Hill,Sydney,NSW,Australia,-33.78439,150.84571,"15 Alverna St, Rooty Hill NSW 2766"
204,412078,Church Point,Sydney,NSW,Australia,-33.64275,151.27917,"33 Douglass Estate, Mccarrs Creek NSW 2105"
205,446497,Fairlight,Sydney,NSW,Australia,-33.79671,151.27045,"24 Rosedale Ave, Fairlight NSW 2094"
206,470500,Camperdown,Sydney,NSW,Australia,-33.889959999999995,151.17949,"114 Church St, Camperdown NSW 2050"
207,503025,Bondi Beach,Sydney,NSW,Australia,-33.8861,151.26959,"37 Curlewis St, Bondi Beach NSW 2026"
208,546595,Cremorne,Sydney,NSW,Australia,-33.82476,151.22943,"11 Levick St, Cremorne NSW 2090"
209,557967,Cromer,Sydney,NSW,Australia,-33.736959999999996,151.27017,"9 Paruna Pl, Cromer NSW 2099"
210,587669,Palm Beach,Sydney,NSW,Australia,-33.603190000000005,151.33141,"338 Whale Beach Rd, Palm Beach NSW 2108"
211,595031,Maroubra,Sydney,NSW,Australia,-33.9407,151.2577,"17 The Causeway, Maroubra NSW 2035"
212,637986,Darlinghurst,Sydney,NSW,Australia,-33.87631,151.21944,"10 Clapton Pl, Darlinghurst NSW 2010"
213,642749,Balmain,Sydney,NSW,Australia,-33.86104,151.18732,"34 Adolphus St, Balmain NSW 2041"
214,644054,Collaroy Plateau,Sydney,NSW,Australia,-33.73137,151.28736999999998,"25 Hall Ave, Collaroy Plateau NSW 2097"
215,698401,Redfern,Sydney,NSW,Australia,-33.8947,151.21428,"30 Maddison Ln, Redfern NSW 2016"
216,703003,Darlinghurst,Sydney,NSW,Australia,-33.87753,151.22585,"13 Barcom Ave, Darlinghurst NSW 2010"
217,59297,Alexandria,Sydney,NSW,Australia,-33.901990000000005,151.19305,"143 Belmont Ln, Alexandria NSW 2015"
218,68999,Cherrybrook,Sydney,NSW,Australia,-33.729659999999996,151.05226000000002,"4 Beahan Pl, Cherrybrook NSW 2126"
219,199043,Rosebery,Sydney,NSW,Australia,-33.914640000000006,151.21125,"4 Galara St, Rosebery NSW 2018"
220,225478,Bundeena,Sydney,NSW,Australia,-34.08273,151.15598,"35 Loftus St, Bundeena NSW 2230"
221,255059,Newtown,Sydney,NSW,Australia,-33.89436,151.17774,"146 Australia St, Newtown NSW 2042"
222,262192,Dawes Point,Sydney,NSW,Australia,-33.8572,151.20619,"67 Lower Fort St, Dawes Point NSW 2000"
223,318591,Glebe,Sydney,NSW,Australia,-33.87743,151.17926,"30 Arcadia Rd, Glebe NSW 2037"
224,330547,Drummoyne,Sydney,NSW,Australia,-33.85236,151.15955,"35 St Georges Cres, Drummoyne NSW 2047"
225,374069,Chippendale,Sydney,NSW,Australia,-33.88673,151.19781,"27 Levey St, Chippendale NSW 2008"
226,466383,North Curl Curl,Sydney,NSW,Australia,-33.76348,151.29738999999998,"2 Taylor St, North Curl Curl NSW 2099"
227,562837,Sydney,Sydney,NSW,Australia,-33.86949,151.22478999999998,"22 Rockwall Cres, Potts Point NSW 2011"
228,655236,Pymble,Sydney,NSW,Australia,-33.76014,151.13592,"21 Shaddock Ave, Pymble NSW 2073"
229,665778,Crows Nest,Sydney,NSW,Australia,-33.830290000000005,151.20266,"365A Pacific Hwy, Crows Nest NSW 2065"
230,14250,Balgowlah,Sydney,NSW,Australia,-33.80093,151.26172,"80 Woodland St S, Balgowlah NSW 2093"
231,45440,Bondi Beach,Sydney,NSW,Australia,-33.88909,151.27451000000002,"151 Curlewis St, Bondi Beach NSW 2026"
232,273477,North Bondi,Sydney,NSW,Australia,-33.88078,151.27255,"11a Bonus St, North Bondi NSW 2026"
233,408202,Rooty Hill,Sydney,NSW,Australia,-33.78338,150.84675,"32 Evans Rd, Rooty Hill NSW 2766"
234,430526,Clovelly,Sydney,NSW,Australia,-33.9117,151.26153,"19 Burnie St, Clovelly NSW 2031"
235,646516,Rose Bay,Sydney,NSW,Australia,-33.87873,151.27584,"69 Reina St, North Bondi NSW 2026"
236,659009,Darlinghurst,Sydney,NSW,Australia,-33.876979999999996,151.22202,"320A Victoria St, Darlinghurst NSW 2010"
237,677546,Linley Point,Sydney,NSW,Australia,-33.82805,151.14616999999998,"Cunninghams Reach, Burns Bay Rd, Linley Point NSW 2066"
